{"fetched_at":"2026-03-29T16:36:15Z","count":15609,"tles":[{"name":"STARLINK-30308","line1":"1 57742U 23131L   26087.62351522  .00002766  00000+0  11276-3 0  9994","line2":"2 57742  43.0009  65.3985 0001242 256.9359 103.1353 15.26739485142820","category":"Starlink"}]}